{
    "links": {
        "self": "http://www.neowsapp.com/rest/v1/neo/3989171?api_key=iIulBulltgU6a56xZRHN4H3l9WmuAYTsLGpBGhQ2"
    },
    "id": "3989171",
    "neo_reference_id": "3989171",
    "name": "(2020 BP7)",
    "designation": "2020 BP7",
    "nasa_jpl_url": "http://ssd.jpl.nasa.gov/sbdb.cgi?sstr=3989171",
    "absolute_magnitude_h": 24.494,
    "estimated_diameter": {
        "kilometers": {
            "estimated_diameter_min": 0.0335548249,
            "estimated_diameter_max": 0.0750308694
        },
        "meters": {
            "estimated_diameter_min": 33.5548248798,
            "estimated_diameter_max": 75.0308694043
        },
        "miles": {
            "estimated_diameter_min": 0.0208499951,
            "estimated_diameter_max": 0.0466220064
        },
        "feet": {
            "estimated_diameter_min": 110.0880116586,
            "estimated_diameter_max": 246.1642775765
        }
    },
    "is_potentially_hazardous_asteroid": false,
    "close_approach_data": [
        {
            "close_approach_date": "2017-02-21",
            "close_approach_date_full": "2017-Feb-21 00:35",
            "epoch_date_close_approach": 1487637300000,
            "relative_velocity": {
                "kilometers_per_second": "9.284371685",
                "kilometers_per_hour": "33423.7380659726",
                "miles_per_hour": "20768.2110221595"
            },
            "miss_distance": {
                "astronomical": "0.1182290029",
                "lunar": "45.9910821281",
                "kilometers": "17686807.006063823",
                "miles": "10990072.2571458374"
            },
            "orbiting_body": "Earth"
        },
        {
            "close_approach_date": "2020-02-24",
            "close_approach_date_full": "2020-Feb-24 01:44",
            "epoch_date_close_approach": 1582508640000,
            "relative_velocity": {
                "kilometers_per_second": "8.1584972901",
                "kilometers_per_hour": "29370.5902443941",
                "miles_per_hour": "18249.7425882459"
            },
            "miss_distance": {
                "astronomical": "0.1434263196",
                "lunar": "55.7928383244",
                "kilometers": "21456271.914099252",
                "miles": "13332309.1400315976"
            },
            "orbiting_body": "Earth"
        },
        {
            "close_approach_date": "2020-08-20",
            "close_approach_date_full": "2020-Aug-20 01:35",
            "epoch_date_close_approach": 1597887300000,
            "relative_velocity": {
                "kilometers_per_second": "7.4588589562",
                "kilometers_per_hour": "26851.8922424415",
                "miles_per_hour": "16684.7215991993"
            },
            "miss_distance": {
                "astronomical": "0.4877789118",
                "lunar": "189.7459966902",
                "kilometers": "72970686.236197866",
                "miles": "45341881.8961719108"
            },
            "orbiting_body": "Earth"
        }
    ],
    "orbital_data": {
        "orbit_id": "4",
        "orbit_determination_date": "2020-02-04 05:38:19",
        "first_observation_date": "2020-01-22",
        "last_observation_date": "2020-02-03",
        "data_arc_in_days": 12,
        "observations_used": 25,
        "orbit_uncertainty": "8",
        "minimum_orbit_intersection": ".0212267",
        "jupiter_tisserand_invariant": "4.889",
        "epoch_osculation": "2458873.5",
        "eccentricity": ".3539554741845679",
        "semi_major_axis": "1.3123009421462",
        "inclination": "10.26162798306386",
        "ascending_node_longitude": "297.903751992838",
        "orbital_period": "549.096389151239",
        "perihelion_distance": ".8478048398959869",
        "perihelion_argument": "283.2992254710907",
        "aphelion_distance": "1.776797044396414",
        "perihelion_time": "2458959.834793681896",
        "mean_anomaly": "303.3969584583774",
        "mean_motion": ".6556225958004694",
        "equinox": "J2000",
        "orbit_class": {
            "orbit_class_type": "APO",
            "orbit_class_description": "Near-Earth asteroid orbits which cross the Earth’s orbit similar to that of 1862 Apollo",
            "orbit_class_range": "a (semi-major axis) > 1.0 AU; q (perihelion) < 1.017 AU"
        }
    },
    "is_sentry_object": false
}